start=new Date('2022-03-08T00:00:00.000Z').valueOf();
sats=[{"TIME_SYSTEM":"UTC","APOAPSIS":"548.403","TLE_LINE1":"1 46687U 20073T   22066.90904678  .00001337  00000-0  10863-3 0  9997","GP_ID":"198189069","COUNTRY_CODE":"US","EPOCH":"2022-03-07T21:49:01.641792","ECCENTRICITY":"0.00017320","DECAY_DATE":null,"NORAD_CAT_ID":"46687","PERIAPSIS":"546.004","REV_AT_EPOCH":"7693","SEMIMAJOR_AXIS":"6925.338","REF_FRAME":"TEME","LAUNCH_DATE":"2020-10-18","SITE":"AFETR","MEAN_MOTION":"15.06403337","ELEMENT_SET_NO":"999","MEAN_MOTION_DOT":"0.00001337","OBJECT_ID":"2020-073T","MEAN_ANOMALY":"298.3188","PERIOD":"95.592","ARG_OF_PERICENTER":"61.7975","FILE":"3349821","RA_OF_ASC_NODE":"308.2920","OBJECT_TYPE":"PAYLOAD","MEAN_MOTION_DDOT":"0.0000000000000","OBJECT_NAME":"STARLINK-1784","INCLINATION":"53.0546","MEAN_ELEMENT_THEORY":"SGP4","CENTER_NAME":"EARTH","CLASSIFICATION_TYPE":"U","TLE_LINE2":"2 46687  53.0546 308.2920 0001732  61.7975 298.3188 15.06403337 76934","RCS_SIZE":"LARGE","EPHEMERIS_TYPE":"0","BSTAR":"0.00010863000000"},{"FILE":"3349821","MEAN_MOTION_DDOT":"0.0000000000000","OBJECT_TYPE":"PAYLOAD","RA_OF_ASC_NODE":"343.1999","ARG_OF_PERICENTER":"50.3389","MEAN_ANOMALY":"309.7753","PERIOD":"95.593","TLE_LINE2":"2 46689  53.0553 343.1999 0001743  50.3389 309.7753 15.06387979 77695","BSTAR":"-0.00014652000000","RCS_SIZE":"LARGE","EPHEMERIS_TYPE":"0","INCLINATION":"53.0553","OBJECT_NAME":"STARLINK-1788","CENTER_NAME":"EARTH","MEAN_ELEMENT_THEORY":"SGP4","CLASSIFICATION_TYPE":"U","TLE_LINE1":"1 46689U 20073V   22066.93348121 -.00002463  00000-0 -14652-3 0  9990","GP_ID":"198187817","COUNTRY_CODE":"US","EPOCH":"2022-03-07T22:24:12.776544","ECCENTRICITY":"0.00017430","APOAPSIS":"548.457","TIME_SYSTEM":"UTC","SITE":"AFETR","ELEMENT_SET_NO":"999","MEAN_MOTION":"15.06387979","REF_FRAME":"TEME","SEMIMAJOR_AXIS":"6925.385","LAUNCH_DATE":"2020-10-18","MEAN_MOTION_DOT":"-0.00002463","OBJECT_ID":"2020-073V","NORAD_CAT_ID":"46689","DECAY_DATE":null,"REV_AT_EPOCH":"7769","PERIAPSIS":"546.043"},{"CLASSIFICATION_TYPE":"U","CENTER_NAME":"EARTH","MEAN_ELEMENT_THEORY":"SGP4","INCLINATION":"53.0560","OBJECT_NAME":"STARLINK-1789","BSTAR":"-0.00012977000000","EPHEMERIS_TYPE":"0","RCS_SIZE":"LARGE","TLE_LINE2":"2 46690  53.0560 318.1765 0001495  74.4278 285.6876 15.06387209 76790","ARG_OF_PERICENTER":"74.4278","PERIOD":"95.593","MEAN_ANOMALY":"285.6876","MEAN_MOTION_DDOT":"0.0000000000000","OBJECT_TYPE":"PAYLOAD","RA_OF_ASC_NODE":"318.1765","FILE":"3349821","REV_AT_EPOCH":"7679","PERIAPSIS":"546.217","NORAD_CAT_ID":"46690","DECAY_DATE":null,"OBJECT_ID":"2020-073W","MEAN_MOTION_DOT":"-0.00002213","MEAN_MOTION":"15.06387209","ELEMENT_SET_NO":"999","SITE":"AFETR","LAUNCH_DATE":"2020-10-18","REF_FRAME":"TEME","SEMIMAJOR_AXIS":"6925.388","APOAPSIS":"548.288","TIME_SYSTEM":"UTC","ECCENTRICITY":"0.00014950","EPOCH":"2022-03-07T22:24:52.985376","COUNTRY_CODE":"US","TLE_LINE1":"1 46690U 20073W   22066.93394659 -.00002213  00000-0 -12977-3 0  9990","GP_ID":"198187568"},{"OBJECT_ID":"2020-073X","MEAN_MOTION_DOT":"0.00000162","MEAN_MOTION":"15.06398696","ELEMENT_SET_NO":"999","SITE":"AFETR","LAUNCH_DATE":"2020-10-18","REF_FRAME":"TEME","SEMIMAJOR_AXIS":"6925.353","PERIAPSIS":"546.158","REV_AT_EPOCH":"7665","NORAD_CAT_ID":"46691","DECAY_DATE":null,"ECCENTRICITY":"0.00015300","EPOCH":"2022-03-07T22:23:31.652736","GP_ID":"198188819","TLE_LINE1":"1 46691U 20073X   22066.93300524  .00000162  00000-0  29749-4 0  9994","COUNTRY_CODE":"US","APOAPSIS":"548.277","TIME_SYSTEM":"UTC","BSTAR":"0.00002974900000","EPHEMERIS_TYPE":"0","RCS_SIZE":"LARGE","TLE_LINE2":"2 46691  53.0543 328.2018 0001530  55.3943 304.7190 15.06398696 76651","CLASSIFICATION_TYPE":"U","MEAN_ELEMENT_THEORY":"SGP4","CENTER_NAME":"EARTH","OBJECT_NAME":"STARLINK-1790","INCLINATION":"53.0543","MEAN_MOTION_DDOT":"0.0000000000000","OBJECT_TYPE":"PAYLOAD","RA_OF_ASC_NODE":"328.2018","FILE":"3349821","ARG_OF_PERICENTER":"55.3943","PERIOD":"95.592","MEAN_ANOMALY":"304.7190"},{"NORAD_CAT_ID":"46692","DECAY_DATE":null,"REV_AT_EPOCH":"7644","PERIAPSIS":"546.157","ELEMENT_SET_NO":"999","MEAN_MOTION":"15.06376945","SITE":"AFETR","LAUNCH_DATE":"2020-10-18","SEMIMAJOR_AXIS":"6925.419","REF_FRAME":"TEME","MEAN_MOTION_DOT":"-0.00004445","OBJECT_ID":"2020-073Y","APOAPSIS":"548.412","TIME_SYSTEM":"UTC","GP_ID":"198188570","TLE_LINE1":"1 46692U 20073Y   22066.91874976 -.00004445  00000-0 -27985-3 0  9999","COUNTRY_CODE":"US","ECCENTRICITY":"0.00016280","EPOCH":"2022-03-07T22:02:59.979264","MEAN_ELEMENT_THEORY":"SGP4","CENTER_NAME":"EARTH","INCLINATION":"53.0572","OBJECT_NAME":"STARLINK-1791","CLASSIFICATION_TYPE":"U","TLE_LINE2":"2 46692  53.0572 343.2470 0001628  55.9396 304.1748 15.06376945 76442","BSTAR":"-0.00027985000000","EPHEMERIS_TYPE":"0","RCS_SIZE":"LARGE","ARG_OF_PERICENTER":"55.9396","PERIOD":"95.594","MEAN_ANOMALY":"304.1748","FILE":"3349821","MEAN_MOTION_DDOT":"0.0000000000000","RA_OF_ASC_NODE":"343.2470","OBJECT_TYPE":"PAYLOAD"},{"EPOCH":"2022-03-07T20:53:20.209920","ECCENTRICITY":"0.00017370","COUNTRY_CODE":"US","TLE_LINE1":"1 46693U 20073Z   22066.87037280  .00018535  00000-0  12597-2 0  9999","GP_ID":"198187318","TIME_SYSTEM":"UTC","APOAPSIS":"548.395","OBJECT_ID":"2020-073Z","MEAN_MOTION_DOT":"0.00018535","SEMIMAJOR_AXIS":"6925.327","REF_FRAME":"TEME","LAUNCH_DATE":"2020-10-18","SITE":"AFETR","ELEMENT_SET_NO":"999","MEAN_MOTION":"15.06407110","PERIAPSIS":"545.989","REV_AT_EPOCH":"7664","DECAY_DATE":null,"NORAD_CAT_ID":"46693","RA_OF_ASC_NODE":"328.4713","OBJECT_TYPE":"PAYLOAD","MEAN_MOTION_DDOT":"0.0000000000000","FILE":"3349821","MEAN_ANOMALY":"303.6481","PERIOD":"95.592","ARG_OF_PERICENTER":"56.4674","RCS_SIZE":"LARGE","EPHEMERIS_TYPE":"0","BSTAR":"0.00125970000000","TLE_LINE2":"2 46693  53.0550 328.4713 0001737  56.4674 303.6481 15.06407110 76649","CLASSIFICATION_TYPE":"U","INCLINATION":"53.0550","OBJECT_NAME":"STARLINK-1792","MEAN_ELEMENT_THEORY":"SGP4","CENTER_NAME":"EARTH"},{"APOAPSIS":"548.388","TIME_SYSTEM":"UTC","COUNTRY_CODE":"US","TLE_LINE1":"1 46694U 20073AA  22066.89432981 -.00003439  00000-0 -21226-3 0  9998","GP_ID":"198188068","EPOCH":"2022-03-07T21:27:50.095584","ECCENTRICITY":"0.00015730","NORAD_CAT_ID":"46694","DECAY_DATE":null,"PERIAPSIS":"546.209","REV_AT_EPOCH":"7693","SITE":"AFETR","ELEMENT_SET_NO":"999","MEAN_MOTION":"15.06372316","SEMIMAJOR_AXIS":"6925.433","REF_FRAME":"TEME","LAUNCH_DATE":"2020-10-18","OBJECT_ID":"2020-073AA","MEAN_MOTION_DOT":"-0.00003439","ARG_OF_PERICENTER":"135.2554","MEAN_ANOMALY":"224.8562","PERIOD":"95.594","FILE":"3349821","MEAN_MOTION_DDOT":"0.0000000000000","RA_OF_ASC_NODE":"308.3744","OBJECT_TYPE":"PAYLOAD","OBJECT_NAME":"STARLINK-1793","INCLINATION":"53.0548","MEAN_ELEMENT_THEORY":"SGP4","CENTER_NAME":"EARTH","CLASSIFICATION_TYPE":"U","TLE_LINE2":"2 46694  53.0548 308.3744 0001573 135.2554 224.8562 15.06372316 76934","BSTAR":"-0.00021226000000","RCS_SIZE":"LARGE","EPHEMERIS_TYPE":"0"},{"FILE":"3349821","OBJECT_TYPE":"PAYLOAD","RA_OF_ASC_NODE":"308.2762","MEAN_MOTION_DDOT":"0.0000000000000","PERIOD":"95.593","MEAN_ANOMALY":"305.8081","ARG_OF_PERICENTER":"54.3085","TLE_LINE2":"2 46696  53.0561 308.2762 0001908  54.3085 305.8081 15.06382243 76938","EPHEMERIS_TYPE":"0","RCS_SIZE":"LARGE","BSTAR":"-0.00021340000000","CENTER_NAME":"EARTH","MEAN_ELEMENT_THEORY":"SGP4","OBJECT_NAME":"STARLINK-1795","INCLINATION":"53.0561","CLASSIFICATION_TYPE":"U","TLE_LINE1":"1 46696U 20073AC  22066.91275674 -.00003457  00000-0 -21340-3 0  9994","GP_ID":"198188320","COUNTRY_CODE":"US","ECCENTRICITY":"0.00019080","EPOCH":"2022-03-07T21:54:22.182336","TIME_SYSTEM":"UTC","APOAPSIS":"548.589","LAUNCH_DATE":"2020-10-18","REF_FRAME":"TEME","SEMIMAJOR_AXIS":"6925.403","MEAN_MOTION":"15.06382243","ELEMENT_SET_NO":"999","SITE":"AFETR","OBJECT_ID":"2020-073AC","MEAN_MOTION_DOT":"-0.00003457","DECAY_DATE":null,"NORAD_CAT_ID":"46696","REV_AT_EPOCH":"7693","PERIAPSIS":"545.947"},{"OBJECT_ID":"2020-073AE","MEAN_MOTION_DOT":"-0.00004587","REF_FRAME":"TEME","SEMIMAJOR_AXIS":"6925.408","LAUNCH_DATE":"2020-10-18","SITE":"AFETR","ELEMENT_SET_NO":"999","MEAN_MOTION":"15.06380724","PERIAPSIS":"546.145","REV_AT_EPOCH":"7665","DECAY_DATE":null,"NORAD_CAT_ID":"46698","EPOCH":"2022-03-07T21:41:04.655904","ECCENTRICITY":"0.00016280","COUNTRY_CODE":"US","TLE_LINE1":"1 46698U 20073AE  22066.90352611 -.00004587  00000-0 -28936-3 0  9995","GP_ID":"198189070","TIME_SYSTEM":"UTC","APOAPSIS":"548.400","RCS_SIZE":"LARGE","EPHEMERIS_TYPE":"0","BSTAR":"-0.00028936000000","TLE_LINE2":"2 46698  53.0543 328.3178 0001628  68.2328 291.8834 15.06380724 76658","CLASSIFICATION_TYPE":"U","OBJECT_NAME":"STARLINK-1797","INCLINATION":"53.0543","MEAN_ELEMENT_THEORY":"SGP4","CENTER_NAME":"EARTH","RA_OF_ASC_NODE":"328.3178","OBJECT_TYPE":"PAYLOAD","MEAN_MOTION_DDOT":"0.0000000000000","FILE":"3349821","MEAN_ANOMALY":"291.8834","PERIOD":"95.593","ARG_OF_PERICENTER":"68.2328"},{"MEAN_MOTION_DDOT":"0.0000000000000","RA_OF_ASC_NODE":"328.3184","OBJECT_TYPE":"PAYLOAD","FILE":"3349821","ARG_OF_PERICENTER":"66.4411","MEAN_ANOMALY":"293.6737","PERIOD":"95.594","BSTAR":"-0.00044759000000","RCS_SIZE":"LARGE","EPHEMERIS_TYPE":"0","TLE_LINE2":"2 46699  53.0534 328.3184 0001513  66.4411 293.6737 15.06377811 76657","CLASSIFICATION_TYPE":"U","OBJECT_NAME":"STARLINK-1799","INCLINATION":"53.0534","CENTER_NAME":"EARTH","MEAN_ELEMENT_THEORY":"SGP4","EPOCH":"2022-03-07T21:46:23.312064","ECCENTRICITY":"0.00015130","COUNTRY_CODE":"US","TLE_LINE1":"1 46699U 20073AF  22066.90721426 -.00006938  00000-0 -44759-3 0  9993","GP_ID":"198187818","APOAPSIS":"548.329","TIME_SYSTEM":"UTC","MEAN_MOTION_DOT":"-0.00006938","OBJECT_ID":"2020-073AF","SITE":"AFETR","ELEMENT_SET_NO":"999","MEAN_MOTION":"15.06377811","REF_FRAME":"TEME","SEMIMAJOR_AXIS":"6925.417","LAUNCH_DATE":"2020-10-18","REV_AT_EPOCH":"7665","PERIAPSIS":"546.234","NORAD_CAT_ID":"46699","DECAY_DATE":null}];
